CCSDS_OMM_VERS = 2.0
CREATION_DATE  = 
ORIGINATOR     = 

OBJECT_NAME    = UNKNOWN
OBJECT_ID      = 
CENTER_NAME    = EARTH
REF_FRAME      = TEME
TIME_SYSTEM    = UTC
MEAN_ELEMENT_THEORY = SGP/SGP4

EPOCH          = 2025-12-12T15:24:50.420736
MEAN_MOTION    = 14.15423436
ECCENTRICITY   = .0082258
INCLINATION    = 99.0237
RA_OF_ASC_NODE = 54.5175
ARG_OF_PERICENTER = 43.6227
MEAN_ANOMALY   = 317.1411

EPHEMERIS_TYPE = 0
CLASSIFICATION_TYPE = U
NORAD_CAT_ID   = 82139
ELEMENT_SET_NO = 999
REV_AT_EPOCH   = 48010
BSTAR          = .17125E-2
MEAN_MOTION_DOT = .3408E-4
MEAN_MOTION_DDOT = 0

CCSDS_OMM_VERS = 2.0
CREATION_DATE  = 
ORIGINATOR     = 

OBJECT_NAME    = UNKNOWN
OBJECT_ID      = 
CENTER_NAME    = EARTH
REF_FRAME      = TEME
TIME_SYSTEM    = UTC
MEAN_ELEMENT_THEORY = SGP/SGP4

EPOCH          = 2025-12-17T12:43:11.849664
MEAN_MOTION    = 13.53592911
ECCENTRICITY   = .0047625
INCLINATION    = 100.4766
RA_OF_ASC_NODE = 276.2980
ARG_OF_PERICENTER = 228.6892
MEAN_ANOMALY   = 131.0137

EPHEMERIS_TYPE = 0
CLASSIFICATION_TYPE = U
NORAD_CAT_ID   = 82162
ELEMENT_SET_NO = 999
REV_AT_EPOCH   = 50495
BSTAR          = .51175E-2
MEAN_MOTION_DOT = .3422E-4
MEAN_MOTION_DDOT = 0

CCSDS_OMM_VERS = 2.0
CREATION_DATE  = 
ORIGINATOR     = 

OBJECT_NAME    = UNKNOWN
OBJECT_ID      = 
CENTER_NAME    = EARTH
REF_FRAME      = TEME
TIME_SYSTEM    = UTC
MEAN_ELEMENT_THEORY = SGP/SGP4

EPOCH          = 2025-12-17T05:28:17.933376
MEAN_MOTION    = 14.51534220
ECCENTRICITY   = .0317528
INCLINATION    = 65.6552
RA_OF_ASC_NODE = 275.7092
ARG_OF_PERICENTER = 215.0286
MEAN_ANOMALY   = 142.9564

EPHEMERIS_TYPE = 0
CLASSIFICATION_TYPE = U
NORAD_CAT_ID   = 82180
ELEMENT_SET_NO = 999
REV_AT_EPOCH   = 60240
BSTAR          = .13669E-2
MEAN_MOTION_DOT = .10517E-3
MEAN_MOTION_DDOT = 0

CCSDS_OMM_VERS = 2.0
CREATION_DATE  = 
ORIGINATOR     = 

OBJECT_NAME    = UNKNOWN
OBJECT_ID      = 
CENTER_NAME    = EARTH
REF_FRAME      = TEME
TIME_SYSTEM    = UTC
MEAN_ELEMENT_THEORY = SGP/SGP4

EPOCH          = 2025-12-15T20:27:34.772256
MEAN_MOTION    = 14.35212469
ECCENTRICITY   = .0017492
INCLINATION    = 74.0351
RA_OF_ASC_NODE = 42.6106
ARG_OF_PERICENTER = 236.3084
MEAN_ANOMALY   = 123.6401

EPHEMERIS_TYPE = 0
CLASSIFICATION_TYPE = U
NORAD_CAT_ID   = 82189
ELEMENT_SET_NO = 999
REV_AT_EPOCH   = 63286
BSTAR          = .10787E-3
MEAN_MOTION_DOT = .283E-5
MEAN_MOTION_DDOT = 0

CCSDS_OMM_VERS = 2.0
CREATION_DATE  = 
ORIGINATOR     = 

OBJECT_NAME    = UNKNOWN
OBJECT_ID      = 
CENTER_NAME    = EARTH
REF_FRAME      = TEME
TIME_SYSTEM    = UTC
MEAN_ELEMENT_THEORY = SGP/SGP4

EPOCH          = 2025-12-17T22:39:40.174272
MEAN_MOTION    = 13.85782989
ECCENTRICITY   = .0038476
INCLINATION    = 82.9659
RA_OF_ASC_NODE = 229.9687
ARG_OF_PERICENTER = 21.8521
MEAN_ANOMALY   = 358.9234

EPHEMERIS_TYPE = 0
CLASSIFICATION_TYPE = U
NORAD_CAT_ID   = 82199
ELEMENT_SET_NO = 999
REV_AT_EPOCH   = 61041
BSTAR          = .43128E-3
MEAN_MOTION_DOT = .512E-5
MEAN_MOTION_DDOT = 0

CCSDS_OMM_VERS = 2.0
CREATION_DATE  = 
ORIGINATOR     = 

OBJECT_NAME    = UNKNOWN
OBJECT_ID      = 
CENTER_NAME    = EARTH
REF_FRAME      = TEME
TIME_SYSTEM    = UTC
MEAN_ELEMENT_THEORY = SGP/SGP4

EPOCH          = 2025-12-15T16:25:58.954368
MEAN_MOTION    = 13.93347485
ECCENTRICITY   = .049426
INCLINATION    = 63.0089
RA_OF_ASC_NODE = 237.0203
ARG_OF_PERICENTER = 293.2909
MEAN_ANOMALY   = 61.6854

EPHEMERIS_TYPE = 0
CLASSIFICATION_TYPE = U
NORAD_CAT_ID   = 82205
ELEMENT_SET_NO = 999
REV_AT_EPOCH   = 60841
BSTAR          = .48255E-3
MEAN_MOTION_DOT = .1623E-4
MEAN_MOTION_DDOT = 0

CCSDS_OMM_VERS = 2.0
CREATION_DATE  = 
ORIGINATOR     = 

OBJECT_NAME    = UNKNOWN
OBJECT_ID      = 
CENTER_NAME    = EARTH
REF_FRAME      = TEME
TIME_SYSTEM    = UTC
MEAN_ELEMENT_THEORY = SGP/SGP4

EPOCH          = 2025-12-13T11:29:50.559360
MEAN_MOTION    = 14.11844014
ECCENTRICITY   = .0069943
INCLINATION    = 99.3186
RA_OF_ASC_NODE = 233.4630
ARG_OF_PERICENTER = 343.8875
MEAN_ANOMALY   = 16.0071

EPHEMERIS_TYPE = 0
CLASSIFICATION_TYPE = U
NORAD_CAT_ID   = 82223
ELEMENT_SET_NO = 999
REV_AT_EPOCH   = 44889
BSTAR          = .21575E-2
MEAN_MOTION_DOT = .3983E-4
MEAN_MOTION_DDOT = 0

CCSDS_OMM_VERS = 2.0
CREATION_DATE  = 
ORIGINATOR     = 

OBJECT_NAME    = UNKNOWN
OBJECT_ID      = 
CENTER_NAME    = EARTH
REF_FRAME      = TEME
TIME_SYSTEM    = UTC
MEAN_ELEMENT_THEORY = SGP/SGP4

EPOCH          = 2025-12-16T05:11:35.760768
MEAN_MOTION    = 14.13817190
ECCENTRICITY   = .0069566
INCLINATION    = 98.9085
RA_OF_ASC_NODE = 255.6660
ARG_OF_PERICENTER = 181.7920
MEAN_ANOMALY   = 333.3704

EPHEMERIS_TYPE = 0
CLASSIFICATION_TYPE = U
NORAD_CAT_ID   = 82250
ELEMENT_SET_NO = 999
REV_AT_EPOCH   = 61712
BSTAR          = .12738E-2
MEAN_MOTION_DOT = .2424E-4
MEAN_MOTION_DDOT = 0

CCSDS_OMM_VERS = 2.0
CREATION_DATE  = 
ORIGINATOR     = 

OBJECT_NAME    = UNKNOWN
OBJECT_ID      = 
CENTER_NAME    = EARTH
REF_FRAME      = TEME
TIME_SYSTEM    = UTC
MEAN_ELEMENT_THEORY = SGP/SGP4

EPOCH          = 2025-12-14T19:41:23.263296
MEAN_MOTION    = 12.33556814
ECCENTRICITY   = .0753328
INCLINATION    = 67.5228
RA_OF_ASC_NODE = 196.9680
ARG_OF_PERICENTER = 105.0648
MEAN_ANOMALY   = 263.4912

EPHEMERIS_TYPE = 0
CLASSIFICATION_TYPE = U
NORAD_CAT_ID   = 82272
ELEMENT_SET_NO = 999
REV_AT_EPOCH   = 27219
BSTAR          = .14137E-2
MEAN_MOTION_DOT = .41E-5
MEAN_MOTION_DDOT = 0

CCSDS_OMM_VERS = 2.0
CREATION_DATE  = 
ORIGINATOR     = 

OBJECT_NAME    = UNKNOWN
OBJECT_ID      = 
CENTER_NAME    = EARTH
REF_FRAME      = TEME
TIME_SYSTEM    = UTC
MEAN_ELEMENT_THEORY = SGP/SGP4

EPOCH          = 2025-12-12T17:24:53.740800
MEAN_MOTION    = 14.31337782
ECCENTRICITY   = .0127087
INCLINATION    = 66.6173
RA_OF_ASC_NODE = 148.2102
ARG_OF_PERICENTER = 223.3779
MEAN_ANOMALY   = 135.7264

EPHEMERIS_TYPE = 0
CLASSIFICATION_TYPE = U
NORAD_CAT_ID   = 82295
ELEMENT_SET_NO = 999
REV_AT_EPOCH   = 57972
BSTAR          = .98631E-3
MEAN_MOTION_DOT = .277E-4
MEAN_MOTION_DDOT = 0

CCSDS_OMM_VERS = 2.0
CREATION_DATE  = 
ORIGINATOR     = 

OBJECT_NAME    = UNKNOWN
OBJECT_ID      = 
CENTER_NAME    = EARTH
REF_FRAME      = TEME
TIME_SYSTEM    = UTC
MEAN_ELEMENT_THEORY = SGP/SGP4

EPOCH          = 2025-12-16T18:29:23.125056
MEAN_MOTION    = 13.86869177
ECCENTRICITY   = .004268
INCLINATION    = 81.9392
RA_OF_ASC_NODE = 359.6981
ARG_OF_PERICENTER = 331.8533
MEAN_ANOMALY   = 201.1927

EPHEMERIS_TYPE = 0
CLASSIFICATION_TYPE = U
NORAD_CAT_ID   = 82303
ELEMENT_SET_NO = 999
REV_AT_EPOCH   = 51498
BSTAR          = .22244E-1
MEAN_MOTION_DOT = .26239E-3
MEAN_MOTION_DDOT = 0

CCSDS_OMM_VERS = 2.0
CREATION_DATE  = 
ORIGINATOR     = 

OBJECT_NAME    = UNKNOWN
OBJECT_ID      = 
CENTER_NAME    = EARTH
REF_FRAME      = TEME
TIME_SYSTEM    = UTC
MEAN_ELEMENT_THEORY = SGP/SGP4

EPOCH          = 2025-12-17T09:52:05.565792
MEAN_MOTION    = 13.54548713
ECCENTRICITY   = .0109048
INCLINATION    = 99.4341
RA_OF_ASC_NODE = 45.0309
ARG_OF_PERICENTER = 295.1442
MEAN_ANOMALY   = 63.8416

EPHEMERIS_TYPE = 0
CLASSIFICATION_TYPE = U
NORAD_CAT_ID   = 82311
ELEMENT_SET_NO = 999
REV_AT_EPOCH   = 55095
BSTAR          = .99611E-3
MEAN_MOTION_DOT = .664E-5
MEAN_MOTION_DDOT = 0

